{
    "CCSDS_OMM_VERS": "3.0",
    "COMMENT": "GENERATED VIA SPACE-TRACK.ORG API",
    "CREATION_DATE": "2025-11-21T07:16:35",
    "ORIGINATOR": "18 SPCS",
    "OBJECT_NAME": "BEIDOU 3 IGSO-3",
    "OBJECT_ID": "2019-073A",
    "CENTER_NAME": "EARTH",
    "REF_FRAME": "TEME",
    "TIME_SYSTEM": "UTC",
    "MEAN_ELEMENT_THEORY": "SGP4",
    "EPOCH": "2025-11-20T07:11:22.740000",
    "MEAN_MOTION": "1.00250097",
    "ECCENTRICITY": "0.00445380",
    "INCLINATION": "55.1630",
    "RA_OF_ASC_NODE": "283.1590",
    "ARG_OF_PERICENTER": "191.5856",
    "MEAN_ANOMALY": "168.2409",
    "EPHEMERIS_TYPE": "0",
    "CLASSIFICATION_TYPE": "U",
    "NORAD_CAT_ID": "44709",
    "ELEMENT_SET_NO": "999",
    "REV_AT_EPOCH": "2236",
    "BSTAR": "0.00000000000000",
    "MEAN_MOTION_DOT": "-0.00000206",
    "MEAN_MOTION_DDOT": "0.0000000000000",
    "SEMIMAJOR_AXIS": "42170.813",
    "PERIOD": "1436.408",
    "APOAPSIS": "35980.498",
    "PERIAPSIS": "35604.858",
    "OBJECT_TYPE": "PAYLOAD",
    "RCS_SIZE": "LARGE",
    "COUNTRY_CODE": "PRC",
    "LAUNCH_DATE": "2019-11-04",
    "SITE": "XSC",
    "DECAY_DATE": null,
    "FILE": "4891092",
    "GP_ID": "303163183",
    "TLE_LINE0": "0 BEIDOU 3 IGSO-3",
    "TLE_LINE1": "1 44709U 19073A   25324.29956875 -.00000206  00000-0  00000+0 0  9999",
    "TLE_LINE2": "2 44709  55.1630 283.1590 0044538 191.5856 168.2409  1.00250097 22360"
}